STARLINK-1008           
1 44714U 19074B   25262.19819666  .00000644  00000+0  62143-4 0  9997
2 44714  53.0511 236.4742 0001211  88.3491 271.7637 15.06401064322909
STARLINK-1010           
1 44716U 19074D   25262.17160569  .00109006  00000+0  63040-3 0  9996
2 44716  53.0514 186.5010 0009894  51.3980 308.7924 15.77747983323581
STARLINK-1011           
1 44717U 19074E   25262.25002315  .00158420  00000+0  13946-2 0  9993
2 44717  53.0499 239.8201 0006894  46.6112 253.0963 15.67738145  5951
STARLINK-1012           
1 44718U 19074F   25261.31356881 -.00000035  00000+0  16586-4 0  9994
2 44718  53.0505 240.4469 0001657  92.7922 267.3257 15.06395279322762
STARLINK-1015           
1 44721U 19074J   25262.25002315  .00424026  86634-4  87772-3 0  9997
2 44721  53.0443 173.9201 0000611  12.7728  23.6838 15.98656939  6026
STARLINK-1017           
1 44723U 19074L   25262.20031111  .00028410  00000+0  16956-2 0  9990
2 44723  53.0525 234.9831 0003847  15.5056 344.6052 15.10929524322926
STARLINK-1019           
1 44724U 19074M   25261.44258411  .00001371  00000+0  11095-3 0  9997
2 44724  53.0533 239.8677 0001864  85.1511 274.9691 15.06399846322785
STARLINK-1020           
1 44725U 19074N   25262.24427074  .00001434  00000+0  11516-3 0  9998
2 44725  53.0555 256.2684 0001334  95.5436 264.5705 15.06395306322625
STARLINK-1021           
1 44726U 19074P   25262.25002315  .00392849  70479-4  11313-2 0  9996
2 44726  53.0447 179.7985 0002469  25.2200  74.6800 15.92573967  5965
STARLINK-1029           
1 44734U 19074X   25262.25002315  .00252236  00000+0  95068-3 0  9998
2 44734  53.0502 103.5917 0005601 109.3781 248.4542 15.86544719  5943
STARLINK-1030           
1 44735U 19074Y   25262.32349772  .10234098  12380-4  30231-3 0  9995
2 44735  53.0280 194.3682 0010130 232.0542 127.9591 16.44386081323495
STARLINK-1031           
1 44736U 19074Z   25262.22459627  .00093335  00000+0  24676-2 0  9998
2 44736  53.0541 236.4314 0008465  21.2624 338.8729 15.37627634322918
STARLINK-1036           
1 44741U 19074AE  25262.27376345  .00000624  00000+0  60773-4 0  9993
2 44741  53.0534 256.1373 0001455  93.9925 266.1230 15.06401936322632
STARLINK-1039           
1 44744U 19074AH  25262.07443677  .00020560  00000+0  12889-2 0  9991
2 44744  53.0523 276.3877 0004876 343.2947  16.7882 15.09316841322333
STARLINK-1042           
1 44747U 19074AL  25262.20199675  .00018097  00000+0  44336-3 0  9990
2 44747  53.0478 191.9872 0003365  32.0638 328.0570 15.40827469323550
STARLINK-1043           
1 44748U 19074AM  25260.45474164 -.00000742  00000+0 -30922-4 0  9992
2 44748  53.0537 284.3038 0000786  88.1303 271.9776 15.06394808322082
