[{"OBJECT_NAME":"STARLINK-1008","OBJECT_ID":"2019-074B","EPOCH":"2025-09-19T04:45:24.191424","MEAN_MOTION":15.06401064,"ECCENTRICITY":0.00012114,"INCLINATION":53.0511,"RA_OF_ASC_NODE":236.4742,"ARG_OF_PERICENTER":88.3491,"MEAN_ANOMALY":271.7637,"EPHEMERIS_TYPE":0,"CLASSIFICATION_TYPE":"U","NORAD_CAT_ID":44714,"ELEMENT_SET_NO":999,"REV_AT_EPOCH":32290,"BSTAR":6.2142831e-5,"MEAN_MOTION_DOT":6.44e-6,"MEAN_MOTION_DDOT":0},{"OBJECT_NAME":"STARLINK-1010","OBJECT_ID":"2019-074D","EPOCH":"2025-09-19T04:07:06.731616","MEAN_MOTION":15.77747983,"ECCENTRICITY":0.00098945,"INCLINATION":53.0514,"RA_OF_ASC_NODE":186.501,"ARG_OF_PERICENTER":51.398,"MEAN_ANOMALY":308.7924,"EPHEMERIS_TYPE":0,"CLASSIFICATION_TYPE":"U","NORAD_CAT_ID":44716,"ELEMENT_SET_NO":999,"REV_AT_EPOCH":32358,"BSTAR":0.0006303953,"MEAN_MOTION_DOT":0.00109006,"MEAN_MOTION_DDOT":0},{"OBJECT_NAME":"STARLINK-1011","OBJECT_ID":"2019-074E","EPOCH":"2025-09-19T06:00:02.000160","MEAN_MOTION":15.67738145,"ECCENTRICITY":0.00068948,"INCLINATION":53.0499,"RA_OF_ASC_NODE":239.8201,"ARG_OF_PERICENTER":46.6112,"MEAN_ANOMALY":253.0963,"EPHEMERIS_TYPE":0,"CLASSIFICATION_TYPE":"U","NORAD_CAT_ID":44717,"ELEMENT_SET_NO":999,"REV_AT_EPOCH":595,"BSTAR":0.0013946453,"MEAN_MOTION_DOT":0.0015842,"MEAN_MOTION_DDOT":0},{"OBJECT_NAME":"STARLINK-1012","OBJECT_ID":"2019-074F","EPOCH":"2025-09-18T07:31:32.345184","MEAN_MOTION":15.06395279,"ECCENTRICITY":0.00016571,"INCLINATION":53.0505,"RA_OF_ASC_NODE":240.4469,"ARG_OF_PERICENTER":92.7922,"MEAN_ANOMALY":267.3257,"EPHEMERIS_TYPE":0,"CLASSIFICATION_TYPE":"U","NORAD_CAT_ID":44718,"ELEMENT_SET_NO":999,"REV_AT_EPOCH":32276,"BSTAR":1.6585898e-5,"MEAN_MOTION_DOT":-3.5e-7,"MEAN_MOTION_DDOT":0},{"OBJECT_NAME":"STARLINK-1015","OBJECT_ID":"2019-074J","EPOCH":"2025-09-19T06:00:02.000160","MEAN_MOTION":15.98656939,"ECCENTRICITY":6.116e-5,"INCLINATION":53.0443,"RA_OF_ASC_NODE":173.9201,"ARG_OF_PERICENTER":12.7728,"MEAN_ANOMALY":23.6838,"EPHEMERIS_TYPE":0,"CLASSIFICATION_TYPE":"U","NORAD_CAT_ID":44721,"ELEMENT_SET_NO":999,"REV_AT_EPOCH":602,"BSTAR":0.00087772035,"MEAN_MOTION_DOT":0.00424026,"MEAN_MOTION_DDOT":8.6633995e-5},{"OBJECT_NAME":"STARLINK-1017","OBJECT_ID":"2019-074L","EPOCH":"2025-09-19T04:48:26.879904","MEAN_MOTION":15.10929524,"ECCENTRICITY":0.00038473,"INCLINATION":53.0525,"RA_OF_ASC_NODE":234.9831,"ARG_OF_PERICENTER":15.5056,"MEAN_ANOMALY":344.6052,"EPHEMERIS_TYPE":0,"CLASSIFICATION_TYPE":"U","NORAD_CAT_ID":44723,"ELEMENT_SET_NO":999,"REV_AT_EPOCH":32292,"BSTAR":0.0016956272,"MEAN_MOTION_DOT":0.0002841,"MEAN_MOTION_DDOT":0},{"OBJECT_NAME":"STARLINK-1019","OBJECT_ID":"2019-074M","EPOCH":"2025-09-18T10:37:19.267104","MEAN_MOTION":15.06399846,"ECCENTRICITY":0.00018647,"INCLINATION":53.0533,"RA_OF_ASC_NODE":239.8677,"ARG_OF_PERICENTER":85.1511,"MEAN_ANOMALY":274.9691,"EPHEMERIS_TYPE":0,"CLASSIFICATION_TYPE":"U","NORAD_CAT_ID":44724,"ELEMENT_SET_NO":999,"REV_AT_EPOCH":32278,"BSTAR":0.00011094682,"MEAN_MOTION_DOT":1.371e-5,"MEAN_MOTION_DDOT":0},{"OBJECT_NAME":"STARLINK-1020","OBJECT_ID":"2019-074N","EPOCH":"2025-09-19T05:51:44.991936","MEAN_MOTION":15.06395306,"ECCENTRICITY":0.00013342,"INCLINATION":53.0555,"RA_OF_ASC_NODE":256.2684,"ARG_OF_PERICENTER":95.5436,"MEAN_ANOMALY":264.5705,"EPHEMERIS_TYPE":0,"CLASSIFICATION_TYPE":"U","NORAD_CAT_ID":44725,"ELEMENT_SET_NO":999,"REV_AT_EPOCH":32262,"BSTAR":0.00011516322,"MEAN_MOTION_DOT":1.434e-5,"MEAN_MOTION_DDOT":0},{"OBJECT_NAME":"STARLINK-1021","OBJECT_ID":"2019-074P","EPOCH":"2025-09-19T06:00:02.000160","MEAN_MOTION":15.92573967,"ECCENTRICITY":0.00024693,"INCLINATION":53.0447,"RA_OF_ASC_NODE":179.7985,"ARG_OF_PERICENTER":25.22,"MEAN_ANOMALY":74.68,"EPHEMERIS_TYPE":0,"CLASSIFICATION_TYPE":"U","NORAD_CAT_ID":44726,"ELEMENT_SET_NO":999,"REV_AT_EPOCH":596,"BSTAR":0.001131342,"MEAN_MOTION_DOT":0.00392849,"MEAN_MOTION_DDOT":7.0479169e-5},{"OBJECT_NAME":"STARLINK-1029","OBJECT_ID":"2019-074X","EPOCH":"2025-09-19T06:00:02.000160","MEAN_MOTION":15.86544719,"ECCENTRICITY":0.00056012,"INCLINATION":53.0502,"RA_OF_ASC_NODE":103.5917,"ARG_OF_PERICENTER":109.3781,"MEAN_ANOMALY":248.4542,"EPHEMERIS_TYPE":0,"CLASSIFICATION_TYPE":"U","NORAD_CAT_ID":44734,"ELEMENT_SET_NO":999,"REV_AT_EPOCH":594,"BSTAR":0.00095067978,"MEAN_MOTION_DOT":0.00252236,"MEAN_MOTION_DDOT":0},{"OBJECT_NAME":"STARLINK-1030","OBJECT_ID":"2019-074Y","EPOCH":"2025-09-19T07:45:50.203008","MEAN_MOTION":16.44386081,"ECCENTRICITY":0.001013,"INCLINATION":53.028,"RA_OF_ASC_NODE":194.3682,"ARG_OF_PERICENTER":232.0542,"MEAN_ANOMALY":127.9591,"EPHEMERIS_TYPE":0,"CLASSIFICATION_TYPE":"U","NORAD_CAT_ID":44735,"ELEMENT_SET_NO":999,"REV_AT_EPOCH":32349,"BSTAR":0.00030231,"MEAN_MOTION_DOT":0.10234098,"MEAN_MOTION_DDOT":1.238e-5},{"OBJECT_NAME":"STARLINK-1031","OBJECT_ID":"2019-074Z","EPOCH":"2025-09-19T05:23:25.117728","MEAN_MOTION":15.37627634,"ECCENTRICITY":0.00084657,"INCLINATION":53.0541,"RA_OF_ASC_NODE":236.4314,"ARG_OF_PERICENTER":21.2624,"MEAN_ANOMALY":338.8729,"EPHEMERIS_TYPE":0,"CLASSIFICATION_TYPE":"U","NORAD_CAT_ID":44736,"ELEMENT_SET_NO":999,"REV_AT_EPOCH":32291,"BSTAR":0.0024676139,"MEAN_MOTION_DOT":0.00093335,"MEAN_MOTION_DDOT":0},{"OBJECT_NAME":"STARLINK-1036","OBJECT_ID":"2019-074AE","EPOCH":"2025-09-19T06:34:13.162080","MEAN_MOTION":15.06401936,"ECCENTRICITY":0.00014557,"INCLINATION":53.0534,"RA_OF_ASC_NODE":256.1373,"ARG_OF_PERICENTER":93.9925,"MEAN_ANOMALY":266.123,"EPHEMERIS_TYPE":0,"CLASSIFICATION_TYPE":"U","NORAD_CAT_ID":44741,"ELEMENT_SET_NO":999,"REV_AT_EPOCH":32263,"BSTAR":6.0773183e-5,"MEAN_MOTION_DOT":6.24e-6,"MEAN_MOTION_DDOT":0},{"OBJECT_NAME":"STARLINK-1039","OBJECT_ID":"2019-074AH","EPOCH":"2025-09-19T01:47:11.336928","MEAN_MOTION":15.09316841,"ECCENTRICITY":0.00048768,"INCLINATION":53.0523,"RA_OF_ASC_NODE":276.3877,"ARG_OF_PERICENTER":343.2947,"MEAN_ANOMALY":16.7882,"EPHEMERIS_TYPE":0,"CLASSIFICATION_TYPE":"U","NORAD_CAT_ID":44744,"ELEMENT_SET_NO":999,"REV_AT_EPOCH":32233,"BSTAR":0.0012889003,"MEAN_MOTION_DOT":0.0002056,"MEAN_MOTION_DDOT":0},{"OBJECT_NAME":"STARLINK-1042","OBJECT_ID":"2019-074AL","EPOCH":"2025-09-19T04:50:52.519200","MEAN_MOTION":15.40827469,"ECCENTRICITY":0.00033653,"INCLINATION":53.0478,"RA_OF_ASC_NODE":191.9872,"ARG_OF_PERICENTER":32.0638,"MEAN_ANOMALY":328.057,"EPHEMERIS_TYPE":0,"CLASSIFICATION_TYPE":"U","NORAD_CAT_ID":44747,"ELEMENT_SET_NO":999,"REV_AT_EPOCH":32355,"BSTAR":0.00044336267,"MEAN_MOTION_DOT":0.00018097,"MEAN_MOTION_DDOT":0},{"OBJECT_NAME":"STARLINK-1043","OBJECT_ID":"2019-074AM","EPOCH":"2025-09-17T10:54:49.677696","MEAN_MOTION":15.06394808,"ECCENTRICITY":7.862e-5,"INCLINATION":53.0537,"RA_OF_ASC_NODE":284.3038,"ARG_OF_PERICENTER":88.1303,"MEAN_ANOMALY":271.9776,"EPHEMERIS_TYPE":0,"CLASSIFICATION_TYPE":"U","NORAD_CAT_ID":44748,"ELEMENT_SET_NO":999,"REV_AT_EPOCH":32208,"BSTAR":-3.0921835e-5,"MEAN_MOTION_DOT":-7.42e-6,"MEAN_MOTION_DDOT":0}]
